TIANMU-1 20             
1 58661U 23208B   26162.90601536  .00007390  00000+0  23651-3 0  9996
2 58661  97.4437 279.8091 0006473 354.7606   5.3567 15.32685963136610
TIANMU-1 21             
1 58662U 23208C   26162.90228508  .00008951  00000+0  26597-3 0  9997
2 58662  97.4496 282.4631 0006367 346.0490  14.0576 15.34983940136753
TIANMU-1 22             
1 58663U 23208D   26162.90945994  .00006656  00000+0  22492-3 0  9993
2 58663  97.4491 279.1231 0003734  22.7270 337.4136 15.30984573136525
TIANMU-1 15             
1 58700U 24004A   26162.98729543  .00005241  00000+0  20067-3 0  9993
2 58700  97.4667 349.1773 0007233  20.3074 339.8451 15.26970533134985
TIANMU-1 16             
1 58701U 24004B   26162.97559480  .00005082  00000+0  19631-3 0  9992
2 58701  97.4613 348.4084 0006347  25.2418 334.9130 15.26695573134983
TIANMU-1 17             
1 58702U 24004C   26162.96104541  .00004999  00000+0  19317-3 0  9993
2 58702  97.4642 348.8769 0006040  31.1252 329.0343 15.26694993134977
TIANMU-1 18             
1 58703U 24004D   26162.93831656  .00005169  00000+0  19811-3 0  9994
2 58703  97.4660 349.1063 0004568  31.6396 328.5117 15.26953243134975
INSAT-3DS               
1 58990U 24033A   26162.92462068 -.00000140  00000+0  00000+0 0  9991
2 58990   0.0407 132.0234 0001072 302.8214 240.3771  1.00272156 47019
METEOR-M2 4             
1 59051U 24039A   26162.97812124  .00000008  00000+0  23139-4 0  9998
2 59051  98.7008 122.3417 0006983 175.7094 184.4145 14.22429069118526
GOES 19                 
1 60133U 24119A   26162.89343142 -.00000232  00000+0  00000+0 0  9997
2 60133   0.0494 149.9409 0000508  25.3639 331.3783  1.00270588  6914
MTG-S1                  
1 64723U 25143A   26162.93209758 -.00000016  00000+0  00000+0 0  9993
2 64723   0.6078 337.7272 0000979  17.6705 236.9519  1.00271607  3368
METOP-SGA1              
1 65159U 25172A   26162.78930202  .00000029  00000+0  33053-4 0  9999
2 65159  98.6644 222.6154 0000941  89.5178 270.6108 14.21508914 43027
FENGYUN 3H              
1 65815U 25219A   26162.82655493  .00000027  00000+0  33253-4 0  9991
2 65815  98.6767 103.6999 0001623  80.6610 279.4750 14.19919573 36620
