OBJECT_NAME,OBJECT_ID,EPOCH,MEAN_MOTION,ECCENTRICITY,INCLINATION,RA_OF_ASC_NODE,ARG_OF_PERICENTER,MEAN_ANOMALY,EPHEMERIS_TYPE,CLASSIFICATION_TYPE,NORAD_CAT_ID,ELEMENT_SET_NO,REV_AT_EPOCH,BSTAR,MEAN_MOTION_DOT,MEAN_MOTION_DDOT
TIANMU-1 20,2023-208B,2026-06-11T21:44:39.727104,15.32685963,.00064732,97.4437,279.8091,354.7606,5.3567,0,U,58661,999,13661,.2365085E-3,.739E-4,0
TIANMU-1 21,2023-208C,2026-06-11T21:39:17.430912,15.34983940,.00063677,97.4496,282.4631,346.0490,14.0576,0,U,58662,999,13675,.2659699E-3,.8951E-4,0
TIANMU-1 22,2023-208D,2026-06-11T21:49:37.338816,15.30984573,.00037346,97.4491,279.1231,22.7270,337.4136,0,U,58663,999,13652,.22492004E-3,.6656E-4,0
TIANMU-1 15,2024-004A,2026-06-11T23:41:42.325152,15.26970533,.00072333,97.4667,349.1773,20.3074,339.8451,0,U,58700,999,13498,.20066902E-3,.5241E-4,0
TIANMU-1 16,2024-004B,2026-06-11T23:24:51.390720,15.26695573,.00063471,97.4613,348.4084,25.2418,334.9130,0,U,58701,999,13498,.19631091E-3,.5082E-4,0
TIANMU-1 17,2024-004C,2026-06-11T23:03:54.323424,15.26694993,.000604,97.4642,348.8769,31.1252,329.0343,0,U,58702,999,13497,.19316847E-3,.4999E-4,0
TIANMU-1 18,2024-004D,2026-06-11T22:31:10.550784,15.26953243,.00045682,97.4660,349.1063,31.6396,328.5117,0,U,58703,999,13497,.19811173E-3,.5169E-4,0
INSAT-3DS,2024-033A,2026-06-11T22:11:27.226752,1.00272156,.00010721,0.0407,132.0234,302.8214,240.3771,0,U,58990,999,4701,0,-.14E-5,0
METEOR-M2 4,2024-039A,2026-06-11T23:28:29.675136,14.22429069,.00069832,98.7008,122.3417,175.7094,184.4145,0,U,59051,999,11852,.23139164E-4,.8E-7,0
GOES 19,2024-119A,2026-06-11T21:26:32.474688,1.00270588,.00005084,0.0494,149.9409,25.3639,331.3783,0,U,60133,999,691,0,-.232E-5,0
MTG-S1,2025-143A,2026-06-11T22:22:13.230912,1.00271607,.00009797,0.6078,337.7272,17.6705,236.9519,0,U,64723,999,336,0,-.16E-6,0
METOP-SGA1,2025-172A,2026-06-11T18:56:35.694528,14.21508914,.00009416,98.6644,222.6154,89.5178,270.6108,0,U,65159,999,4302,.33052532E-4,.29E-6,0
FENGYUN 3H,2025-219A,2026-06-11T19:50:14.345952,14.19919573,.00016237,98.6767,103.6999,80.6610,279.4750,0,U,65815,999,3662,.3325296E-4,.27E-6,0
